CTC2_L_00217016-03
1 10062U 26585MO  26075.70042824  .00000000  00000+0  00000-0 0  9991
2 10062  75.0000 180.0000 0000000   0.0000   0.0000 14.33516687    17
CTC2_L_00217016-04
1 10063U 26388AO  26075.70042824  .00000000  00000+0  00000-0 0  9993
2 10063  75.0000 180.0000 0000000   0.0000  90.0000 14.33516687    17
CTC2_L_00217017-01
1 10064U 26953HD  26075.70042824  .00000000  00000+0  00000-0 0  9992
2 10064  75.0000 192.0000 0000000   0.0000 192.0000 14.33516687    14
CTC2_L_00217017-02
1 10065U 24429UR  26075.70042824  .00000000  00000+0  00000-0 0  9999
2 10065  75.0000 192.0000 0000000   0.0000 282.0000 14.33516687    15
CTC2_L_00217017-03
1 10066U 26531HE  26075.70042824  .00000000  00000+0  00000-0 0  9996
2 10066  75.0000 192.0000 0000000   0.0000  12.0000 14.33516687    17
CTC2_L_00217017-04
1 10067U 26568MQ  26075.70042824  .00000000  00000+0  00000-0 0  9997
2 10067  75.0000 192.0000 0000000   0.0000 102.0000 14.33516687    18
CTC2_L_00217018-01
1 10068U 24620E   26075.70042824  .00000000  00000+0  00000-0 0  9995
2 10068  75.0000 204.0000 0000000   0.0000 204.0000 14.33516687    16
CTC2_L_00217018-02
1 10069U 23261WA  26075.70042824  .00000000  00000+0  00000-0 0  9996
2 10069  75.0000 204.0000 0000000   0.0000 294.0000 14.33516687    16
CTC2_L_00217018-03
1 10070U 22892QD  26075.70042824  .00000000  00000+0  00000-0 0  9997
2 10070  75.0000 204.0000 0000000   0.0000  24.0000 14.33516687    19
CTC2_L_00217018-04
1 10071U 22591HZ  26075.70042824  .00000000  00000+0  00000-0 0  9994
2 10071  75.0000 204.0000 0000000   0.0000 114.0000 14.33516687    10
CTC2_L_00217019-01
1 10072U 24104CU  26075.70042824  .00000000  00000+0  00000-0 0  9997
2 10072  75.0000 216.0000 0000000   0.0000 216.0000 14.33516687    17
CTC2_L_00217019-02
1 10073U 24128UI  26075.70042824  .00000000  00000+0  00000-0 0  9994
2 10073  75.0000 216.0000 0000000   0.0000 306.0000 14.33516687    18
CTC2_L_00217019-03
1 10074U 24361QA  26075.70042824  .00000000  00000+0  00000-0 0  9994
2 10074  75.0000 216.0000 0000000   0.0000  36.0000 14.33516687    19
CTC2_L_00217019-04
1 10075U 24882VE  26075.70042824  .00000000  00000+0  00000-0 0  9993
2 10075  75.0000 216.0000 0000000   0.0000 126.0000 14.33516687    10
CTC2_L_00217020-01
1 10076U 22330LQ  26075.70042824  .00000000  00000+0  00000-0 0  9990
2 10076  75.0000 228.0000 0000000   0.0000 228.0000 14.33516687    17
CTC2_L_00217020-02
1 10077U 22218JN  26075.70042824  .00000000  00000+0  00000-0 0  9996
2 10077  75.0000 228.0000 0000000   0.0000 318.0000 14.33516687    18
CTC2_L_00217020-03
1 10078U 24811ZT  26075.70042824  .00000000  00000+0  00000-0 0  9998
2 10078  75.0000 228.0000 0000000   0.0000  48.0000 14.33516687    19
CTC2_L_00217020-04
1 10079U 23876WW  26075.70042824  .00000000  00000+0  00000-0 0  9999
2 10079  75.0000 228.0000 0000000   0.0000 138.0000 14.33516687    10
CTC2_L_00217021-01
1 10080U 22816MK  26075.70042824  .00000000  00000+0  00000-0 0  9994
2 10080  75.0000 240.0000 0000000   0.0000 240.0000 14.33516687    10
CTC2_L_00217021-02
1 10081U 22615JL  26075.70042824  .00000000  00000+0  00000-0 0  9992
2 10081  75.0000 240.0000 0000000   0.0000 330.0000 14.33516687    11
CTC2_L_00217021-03
1 10082U 24528IK  26075.70042824  .00000000  00000+0  00000-0 0  9998
2 10082  75.0000 240.0000 0000000   0.0000  60.0000 14.33516687    12
CTC2_L_00217021-04
1 10083U 22705JJ  26075.70042824  .00000000  00000+0  00000-0 0  9994
2 10083  75.0000 240.0000 0000000   0.0000 150.0000 14.33516687    13
CTC2_L_00217022-01
1 10084U 22786JJ  26075.70042824  .00000000  00000+0  00000-0 0  9994
2 10084  75.0000 252.0000 0000000   0.0000 252.0000 14.33516687    10
CTC2_L_00217022-02
1 10085U 24663FW  26075.70042824  .00000000  00000+0  00000-0 0  9991
2 10085  75.0000 252.0000 0000000   0.0000 342.0000 14.33516687    11
CTC2_L_00217022-03
1 10086U 25961PI  26075.70042824  .00000000  00000+0  00000-0 0  9994
2 10086  75.0000 252.0000 0000000   0.0000  72.0000 14.33516687    12
CTC2_L_00217022-04
1 10087U 23182DT  26075.70042824  .00000000  00000+0  00000-0 0  9998
2 10087  75.0000 252.0000 0000000   0.0000 162.0000 14.33516687    13
CTC2_L_00217023-01
1 10088U 26790RH  26075.70042824  .00000000  00000+0  00000-0 0  9997
2 10088  75.0000 264.0000 0000000   0.0000 264.0000 14.33516687    10
CTC2_L_00217023-02
1 10089U 25117DO  26075.70042824  .00000000  00000+0  00000-0 0  9990
2 10089  75.0000 264.0000 0000000   0.0000 354.0000 14.33516687    11
CTC2_L_00217023-03
1 10090U 24118EQ  26075.70042824  .00000000  00000+0  00000-0 0  9992
2 10090  75.0000 264.0000 0000000   0.0000  84.0000 14.33516687    13
CTC2_L_00217023-04
1 10091U 25701QC  26075.70042824  .00000000  00000+0  00000-0 0  9992
2 10091  75.0000 264.0000 0000000   0.0000 174.0000 14.33516687    14
CTC2_L_00217024-01
1 10092U 26339ES  26075.70042824  .00000000  00000+0  00000-0 0  9991
2 10092  75.0000 276.0000 0000000   0.0000 276.0000 14.33516687    11
CTC2_L_00217024-02
1 10093U 26945HK  26075.70042824  .00000000  00000+0  00000-0 0  9995
2 10093  75.0000 276.0000 0000000   0.0000   6.0000 14.33516687    13
CTC2_L_00217024-03
1 10094U 24727DG  26075.70042824  .00000000  00000+0  00000-0 0  9992
2 10094  75.0000 276.0000 0000000   0.0000  96.0000 14.33516687    13
CTC2_L_00217024-04
1 10095U 26136ML  26075.70042824  .00000000  00000+0  00000-0 0  9999
2 10095  75.0000 276.0000 0000000   0.0000 186.0000 14.33516687    14
CTC2_L_00217025-01
1 10096U 26413DK  26075.70042824  .00000000  00000+0  00000-0 0  9998
2 10096  75.0000 288.0000 0000000   0.0000 288.0000 14.33516687    11
CTC2_L_00217025-02
1 10097U 26945KU  26075.70042824  .00000000  00000+0  00000-0 0  9999
2 10097  75.0000 288.0000 0000000   0.0000  18.0000 14.33516687    13
CTC2_L_00217025-03
1 10098U 23484FZ  26075.70042824  .00000000  00000+0  00000-0 0  9995
2 10098  75.0000 288.0000 0000000   0.0000 108.0000 14.33516687    14
CTC2_L_00217025-04
1 10099U 23754JO  26075.70042824  .00000000  00000+0  00000-0 0  9996
2 10099  75.0000 288.0000 0000000   0.0000 198.0000 14.33516687    14
CTC2_L_00217026-01
1 10100U 25204LV  26075.70042824  .00000000  00000+0  00000-0 0  9991
2 10100  75.0000 300.0000 0000000   0.0000 300.0000 14.33516687    17
CTC2_L_00217026-02
1 10101U 23530ZI  26075.70042824  .00000000  00000+0  00000-0 0  9992
2 10101  75.0000 300.0000 0000000   0.0000  30.0000 14.33516687    18
CTC2_L_00217026-03
1 10102U 23751MO  26075.70042824  .00000000  00000+0  00000-0 0  9998
2 10102  75.0000 300.0000 0000000   0.0000 120.0000 14.33516687    19
CTC2_L_00217026-04
1 10103U 24757FD  26075.70042824  .00000000  00000+0  00000-0 0  9996
2 10103  75.0000 300.0000 0000000   0.0000 210.0000 14.33516687    10
CTC2_L_00217027-01
1 10104U 26241VE  26075.70042824  .00000000  00000+0  00000-0 0  9997
2 10104  75.0000 312.0000 0000000   0.0000 312.0000 14.33516687    17
CTC2_L_00217027-02
1 10105U 24290EJ  26075.70042824  .00000000  00000+0  00000-0 0  9990
2 10105  75.0000 312.0000 0000000   0.0000  42.0000 14.33516687    18
CTC2_L_00217027-03
1 10106U 24618AL  26075.70042824  .00000000  00000+0  00000-0 0  9995
2 10106  75.0000 312.0000 0000000   0.0000 132.0000 14.33516687    19
CTC2_L_00217027-04
1 10107U 25197RG  26075.70042824  .00000000  00000+0  00000-0 0  9999
2 10107  75.0000 312.0000 0000000   0.0000 222.0000 14.33516687    10
CTC2_L_00217028-01
1 10108U 23052ID  26075.70042824  .00000000  00000+0  00000-0 0  9998
2 10108  75.0000 324.0000 0000000   0.0000 324.0000 14.33516687    17
CTC2_L_00217028-02
1 10109U 25661EJ  26075.70042824  .00000000  00000+0  00000-0 0  9997
2 10109  75.0000 324.0000 0000000   0.0000  54.0000 14.33516687    18
CTC2_L_00217028-03
1 10110U 26336NH  26075.70042824  .00000000  00000+0  00000-0 0  9999
2 10110  75.0000 324.0000 0000000   0.0000 144.0000 14.33516687    10
CTC2_L_00217028-04
1 10111U 26441DD  26075.70042824  .00000000  00000+0  00000-0 0  9997
2 10111  75.0000 324.0000 0000000   0.0000 234.0000 14.33516687    11
CTC2_L_00217029-01
1 10112U 23444QY  26075.70042824  .00000000  00000+0  00000-0 0  9998
2 10112  75.0000 336.0000 0000000   0.0000 336.0000 14.33516687    18
CTC2_L_00217029-02
1 10113U 24200HS  26075.70042824  .00000000  00000+0  00000-0 0  9990
2 10113  75.0000 336.0000 0000000   0.0000  66.0000 14.33516687    19
CTC2_L_00217029-03
1 10114U 26707MN  26075.70042824  .00000000  00000+0  00000-0 0  9995
2 10114  75.0000 336.0000 0000000   0.0000 156.0000 14.33516687    10
CTC2_L_00217029-04
1 10115U 24621KN  26075.70042824  .00000000  00000+0  00000-0 0  9999
2 10115  75.0000 336.0000 0000000   0.0000 246.0000 14.33516687    11
CTC2_L_00217030-01
1 10116U 22830FR  26075.70042824  .00000000  00000+0  00000-0 0  9990
2 10116  75.0000 348.0000 0000000   0.0000 348.0000 14.33516687    18
CTC2_L_00217030-02
1 10117U 24907QM  26075.70042824  .00000000  00000+0  00000-0 0  9998
2 10117  75.0000 348.0000 0000000   0.0000  78.0000 14.33516687    19
CTC2_L_00217030-03
1 10118U 22395EF  26075.70042824  .00000000  00000+0  00000-0 0  9998
2 10118  75.0000 348.0000 0000000   0.0000 168.0000 14.33516687    10
CTC2_L_00217030-04
1 10119U 25228FK  26075.70042824  .00000000  00000+0  00000-0 0  9997
2 10119  75.0000 348.0000 0000000   0.0000 258.0000 14.33516687    11
